EUTELSAT 65 WEST A
1 41382U 16014A   25180.20253010 -.00000281  00000+0  00000+0 0  9999
2 41382   0.0530  25.5077 0002256  72.7000 187.0264  1.00270381 34103
COSMOS 2515
1 41394U 16020A   25180.51277987  .00000919  00000+0  66786-4 0  9997
2 41394  97.9752 178.0524 0025637  56.3511 304.0155 15.06269040507297
GSAT0211 (GALILEO 14)
1 41549U 16030A   25176.73944152  .00000041  00000+0  00000+0 0  9992
2 41549  55.2114 231.4976 0002945 307.1716  52.8996  1.70473800 56594
GSAT0210 (GALILEO 13)
1 41550U 16030B   25179.93011809  .00000022  00000+0  00000+0 0  9992
2 41550  55.2099 231.4079 0004120 232.8399 127.2059  1.70474056 56625
COSMOS 2517 (GEO-IK 2)
1 41579U 16034A   25180.54947154 -.00000016  00000+0  24400-4 0  9996
2 41579  99.1928 190.9260 0001236 100.2614 259.8681 13.85907794458783
EUTELSAT 117 WEST B
1 41589U 16038B   25180.48447497 -.00000015  00000+0  00000+0 0  9993
2 41589   0.0101 201.7356 0000058 179.9778 313.5069  1.00266146 33162
BIROS
1 41604U 16040F   25179.62100842  .00023269  00000+0  25576-3 0  9992
2 41604  97.0848 208.5616 0007238 104.4359 255.7704 15.63153230502474
PROMETHEUS 2-1
1 41854U 16067G   25180.11234148  .00030437  00000+0  54446-3 0  9994
2 41854  98.0740  35.7648 0006943 167.7054 192.4366 15.49933136473433
PROMETHEUS 2-3
1 41855U 16067H   25179.54097200  .00030803  00000+0  55218-3 0  9991
2 41855  98.0675  34.2798 0005791 171.9167 188.2177 15.49878078473349
GSAT0207 (GALILEO 15)
1 41859U 16069A   25179.03538553 -.00000015  00000+0  00000+0 0  9990
2 41859  55.2826 110.8969 0005019 320.0261  39.9088  1.70473766 53365
GSAT0212 (GALILEO 16)
1 41860U 16069B   25179.47582748 -.00000014  00000+0  00000+0 0  9994
2 41860  55.2804 110.8803 0004117 348.7842  11.1812  1.70473923 53621
GSAT0213 (GALILEO 17)
1 41861U 16069C   25179.84374947 -.00000013  00000+0  00000+0 0  9995
2 41861  55.2827 110.8774 0004645 303.3120  56.6202  1.70474331 53627
GSAT0214 (GALILEO 18)
1 41862U 16069D   25179.40285061 -.00000014  00000+0  00000+0 0  9997
2 41862  55.2811 110.8828 0004135 306.9327  53.0036  1.70473997 53615
RESOURCESAT-2A
1 41877U 16074A   25180.52418078  .00000072  00000+0  52635-4 0  9999
2 41877  98.7038 251.7240 0002566  65.4859 294.6585 14.21610198444207
SENTINEL-2B
1 42063U 17013A   25180.48026879  .00000069  00000+0  43023-4 0  9997
2 42063  98.5696 255.3309 0001140  98.3512 261.7801 14.30814630434210
COSMOS 2518
1 42719U 17027A   25174.13317438 -.00000072  00000+0  94195-2 0  9998
2 42719  63.0835 294.1573 7155679 272.4248  14.9673  2.00696406 59186
EUTELSAT 172B
1 42741U 17029B   25180.17507109 -.00000010  00000+0  00000+0 0  9993
2 42741   0.0132  65.9612 0000066 315.6829 130.8698  1.00271992 30178
COSMOS 2520
1 42907U 17046A   25179.83577001  .00000132  00000+0  00000+0 0  9999
2 42907   0.0385  95.9044 0000789   7.8296 159.2842  1.00270948 28852
COSMOS 2522 [GLONASS-M]
1 42939U 17055A   25180.24018167  .00000045  00000+0  00000+0 0  9997
2 42939  64.0778 203.8988 0010627 240.9461 118.9960  2.13101960 60453
SENTINEL-5P
1 42969U 17064A   25179.85740838  .00000037  00000+0  38228-4 0  9991
2 42969  98.7585 120.1366 0001174  94.8354 265.2956 14.19529622399433
COSMOS 2523
1 42986U 17037E   25180.51599313  .00000831  00000+0  80291-4 0  9994
2 42986  97.5189 203.7152 0068364 333.6684  26.1067 14.93743805416287
MAKERSAT 0
1 43016U 17073D   25180.21272050  .00011834  00000+0  46752-3 0  9990
2 43016  97.5159  58.2063 0147210  72.4548 289.2708 15.16109256412707
COSMOS 2524
1 43032U 17076A   25180.53497163 -.00000044  00000+0  22634-4 0  9996
2 43032  67.1461 330.7254 0003817 313.2930  46.7837 13.97370050386381
GSAT0215 (GALILEO 19)
1 43055U 17079A   25179.89298546  .00000022  00000+0  00000+0 0  9998
2 43055  55.1885 231.2271 0004028 259.1695 100.8688  1.70474417 46961
GSAT0216 (GALILEO 20)
1 43056U 17079B   25177.25150833  .00000037  00000+0  00000+0 0  9999
2 43056  55.1891 231.3000 0004568 268.8285  91.2157  1.70474635 46934
GSAT0217 (GALILEO 21)
1 43057U 17079C   25179.23186673  .00000025  00000+0  00000+0 0  9998
2 43057  55.1860 231.2434 0005465 276.6356  83.3893  1.70474438 46956
GSAT0218 (GALILEO 22)
1 43058U 17079D   25179.45193156  .00000024  00000+0  00000+0 0  9996
2 43058  55.1865 231.2354 0005032 266.1801  93.8483  1.70474600 46987
COSMOS 2526
1 43432U 18037A   25180.55121497 -.00000348  00000+0  00000+0 0  9999
2 43432   0.0272  85.7163 0000585 142.8135  15.8349  1.00274623 26420
SENTINEL-3B
1 43437U 18039A   25179.80517413  .00000069  00000+0  46752-4 0  9997
2 43437  98.6298 247.3639 0000875 123.1593 236.9671 14.26732788373738
GRACE-FO 1
1 43476U 18047A   25180.49504259  .00002415  00000+0  70558-4 0  9998
2 43476  88.9778 246.6669 0013954  54.6746 305.5809 15.34747350395642
GRACE-FO 2
1 43477U 18047B   25179.90851293  .00002552  00000+0  74651-4 0  9996
2 43477  88.9780 246.7478 0014021  56.5158 303.7433 15.34741624395550
COSMOS 2527 [GLONASS-M]
1 43508U 18053A   25180.20041194 -.00000021  00000+0  00000+0 0  9996
2 43508  65.3810  85.6989 0007121 236.0943 123.8756  2.13102235 54750
GSAT0221 (GALILEO 25)
1 43564U 18060A   25179.94092582 -.00000100  00000+0  00000+0 0  9990
2 43564  57.2677 351.3165 0002421 293.1336  66.8382  1.70476002 43151
GSAT0222 (GALILEO 26)
1 43565U 18060B   25174.88076964 -.00000089  00000+0  00000+0 0  9991
2 43565  57.2699 351.4552 0001950 237.5769 122.4116  1.70475546 43106
GSAT0219 (GALILEO 23)
1 43566U 18060C   25178.62160967 -.00000100  00000+0  00000+0 0  9999
2 43566  57.2707 351.3563 0001840 317.2745  42.7085  1.70475926 43141
GSAT0220 (GALILEO 24)
1 43567U 18060D   25179.42903481 -.00000100  00000+0  00000+0 0  9995
2 43567  57.2699 351.3344 0001844 292.7051  67.2725  1.70475845 43143
ICESAT-2
1 43613U 18070A   25179.96173920  .00002216  00000+0  80336-4 0  9998
2 43613  91.9873 195.9020 0006990 107.9037 252.2975 15.28259669378512
AZERSPACE 2 (IS-38)
1 43632U 18074A   25180.18169802  .00000132  00000+0  00000+0 0  9993
2 43632   0.0198  17.6716 0001360  79.5570 290.8108  1.00269120 24903
COSMOS 2528
1 43657U 18082A   25180.19368070 -.00000068  00000+0  52350-5 0  9998
2 43657  67.1469 215.6875 0007626 257.7488 102.2743 13.96677271340618
COSMOS 2529 [GLONASS-M]
1 43687U 18086A   25180.29829973  .00000045  00000+0  00000+0 0  9993
2 43687  64.2936 204.5111 0011907 257.7917 102.1245  2.13102098 51760
METOP-C
1 43689U 18087A   25180.49402220  .00000060  00000+0  47445-4 0  9996
2 43689  98.7147 240.5760 0002347 104.1972 255.9466 14.21491812344722
COSMOS 2530
1 43751U 18097A   25180.47395598  .00000033  00000+0  16389-3 0  9996
2 43751  82.5142  81.2291 0020729  83.8947 276.4494 12.42866939298562
COSMOS 2531
1 43752U 18097B   25180.50077679  .00000046  00000+0  25944-3 0  9999
2 43752  82.5187  82.1453 0017465 101.2021 259.1023 12.42860263298574
COSMOS 2532
1 43753U 18097C   25180.52761807  .00000037  00000+0  19702-3 0  9990
2 43753  82.5132  81.0735 0018963 103.1536 257.1661 12.42859277298571
ESEO
1 43792U 18099AL  25179.71314540  .00000673  00000+0  54668-4 0  9999
2 43792  97.4472 226.5409 0015247  96.1278 264.1685 15.02677244358691
EUCROPIS
1 43807U 18099BB  25179.95139013  .00004567  00000+0  25330-3 0  9991
2 43807  97.4714 236.5943 0007948  90.5210 269.6932 15.14241012358894
COSMOS 2533
1 43867U 18107A   25180.15404220 -.00000043  00000+0  00000+0 0  9995
2 43867   0.0416 104.0967 0000594   8.7493 290.0512  1.00273422 23888
COSMOS 2534 [GLONASS-M]
1 44299U 19030A   25179.84717197  .00000045  00000+0  00000+0 0  9996
2 44299  64.3669 204.5151 0013508 276.7835 231.4033  2.13102401 47390
EUTELSAT 7C
1 44334U 19034B   25179.71319757  .00000043  00000+0  00000+0 0  9994
2 44334   0.0692 188.2520 0003037 254.3861  98.1433  1.00271125  3296
COSMOS 2538
1 44424U 19039D   25180.47650873  .00003863  00000+0  20229-3 0  9993
2 44424  97.6243 253.0659 0047192 186.3839 173.6797 15.15464985326393
COSMOS 2539
1 44457U 19048A   25180.19281079  .00000077  00000+0  00000+0 0  9991
2 44457   0.0333  93.8990 0000776  22.3929 242.6144  1.00273708 21688
COSMOS 2540
1 44517U 19057A   25180.52521944  .00000019  00000+0  54801-4 0  9992
2 44517  99.2146 192.9438 0016406  39.5487 320.6862 13.85873091295023
COSMOS 2541
1 44552U 19065A   25179.33672655  .00000093  00000+0  00000+0 0  9992
2 44552  62.7321 189.6544 6493728 272.5201  20.1518  2.00607947 42129
EUTELSAT 5 WEST B
1 44624U 19067A   25179.85364775 -.00000047  00000+0  00000+0 0  9992
2 44624   0.0629 351.7075 0002897 104.7234 123.0560  1.00272248 20896
COSMOS 2544 [GLONASS-M]
1 44850U 19088A   25180.14480936 -.00000021  00000+0  00000+0 0  9990
2 44850  65.3683  85.5306 0012787 258.6714 101.2226  2.13102035 43175
CBERS 4A
1 44883U 19093E   25180.48812320  .00000609  00000+0  84045-4 0  9992
2 44883  97.7926 253.1936 0001529 182.1571 177.9636 14.81596053298853
EUTELSAT KONNECT
1 45027U 20005B   25180.41086554  .00000045  00000+0  00000+0 0  9991
2 45027   0.0627  89.9964 0001805 138.0892 204.7490  1.00267976 20786
COSMOS 2545 [GLONASS-M]
1 45358U 20018A   25179.87188415 -.00000072  00000+0  00000+0 0  9990
2 45358  64.5640 324.8155 0008550 232.7413 127.1727  2.13102549 41133
COSMOS 2546
1 45608U 20031A   25174.60331755  .00000245  00000+0  00000+0 0  9997
2 45608  63.1142 110.1835 6892991 265.0652  19.8353  2.00599793 37273
COSMOS 2547 [GLONASS-K]
1 46805U 20075A   25179.58903370  .00000046  00000+0  00000+0 0  9994
2 46805  64.5971 204.2774 0009155 240.7729 119.1872  2.13100265 36372
DRAGRACER 2 (AUGURY)
1 46955U 20085AC  25179.92610809  .00010752  00000+0  19067-3 0  9993
2 46955  97.5802 347.5089 0008716 123.8940 236.3141 15.50398251256818
SENTINEL-6
1 46984U 20086A   25180.33840998 -.00000063  00000+0 -64246-5 0  9994
2 46984  66.0397 147.9253 0008088 270.0247  89.9841 12.80929441215255
COSMOS 2548
1 47230U 20091D   25180.52087270  .00000021  00000+0  84408-4 0  9995
2 47230  82.4994 160.9984 0013695 241.2843 118.6861 12.42920635207395
COSMOS 2549
1 47546U 21008A   25180.50284801 -.00000062  00000+0  93374-5 0  9990
2 47546  67.1480 122.6637 0006055 280.9629  79.0775 13.96935263224553
